{
  "type": "FeatureCollection",
  "features": [
    {
      "type": "Feature",
      "properties": {
        "norad_id": 33886,
        "name": "IRIDIUM 33 DEB",
        "group": "iridium-33-debris",
        "lat": 60.55162471386617,
        "lon": 68.56020439857303,
        "alt_km": 772.8361663775413,
        "timestamp": "2025-12-24T20:42:21.410626+00:00",
        "meta_object_name": "IRIDIUM 33 DEB",
        "meta_object_id": "1997-051BF",
        "meta_epoch": "2025-12-24T03:47:51.512640",
        "meta_mean_motion": 14.36064559,
        "meta_eccentricity": 0.0013372,
        "meta_inclination": 86.382,
        "meta_ra_of_asc_node": 62.4223,
        "meta_arg_of_pericenter": 201.1146,
        "meta_mean_anomaly": 179.8883,
        "meta_ephemeris_type": 0,
        "meta_classification_type": "U",
        "meta_norad_cat_id": 33886,
        "meta_element_set_no": 999,
        "meta_rev_at_epoch": 88216,
        "meta_bstar": 0.00017797246,
        "meta_mean_motion_dot": 5.38e-06,
        "meta_mean_motion_ddot": 0,
        "tle_line1": "1 33886U 97051BF  25358.15823510  .00000538  00000+0  17797-3 0  9997",
        "tle_line2": "2 33886  86.3820  62.4223 0013372 201.1146 179.8883 14.36064559882169"
      },
      "geometry": {
        "type": "Point",
        "coordinates": [
          68.56020439857303,
          60.55162471386617
        ]
      }
    },
    {
      "type": "Feature",
      "properties": {
        "norad_id": 33887,
        "name": "IRIDIUM 33 DEB",
        "group": "iridium-33-debris",
        "lat": 47.81764180955959,
        "lon": 2.257668157161861,
        "alt_km": 766.2265040342727,
        "timestamp": "2025-12-24T20:42:21.410636+00:00",
        "meta_object_name": "IRIDIUM 33 DEB",
        "meta_object_id": "1997-051BG",
        "meta_epoch": "2025-12-24T07:11:17.955168",
        "meta_mean_motion": 14.37230926,
        "meta_eccentricity": 0.0005704,
        "meta_inclination": 86.3043,
        "meta_ra_of_asc_node": 358.4102,
        "meta_arg_of_pericenter": 182.2132,
        "meta_mean_anomaly": 193.5108,
        "meta_ephemeris_type": 0,
        "meta_classification_type": "U",
        "meta_norad_cat_id": 33887,
        "meta_element_set_no": 999,
        "meta_rev_at_epoch": 88331,
        "meta_bstar": 0.00014200171,
        "meta_mean_motion_dot": 4.42e-06,
        "meta_mean_motion_ddot": 0,
        "tle_line1": "1 33887U 97051BG  25358.29951337  .00000442  00000+0  14200-3 0  9992",
        "tle_line2": "2 33887  86.3043 358.4102 0005704 182.2132 193.5108 14.37230926883310"
      },
      "geometry": {
        "type": "Point",
        "coordinates": [
          2.257668157161861,
          47.81764180955959
        ]
      }
    },
    {
      "type": "Feature",
      "properties": {
        "norad_id": 33953,
        "name": "IRIDIUM 33 DEB",
        "group": "iridium-33-debris",
        "lat": -25.582950424905324,
        "lon": 46.78157065178501,
        "alt_km": 713.8831891691534,
        "timestamp": "2025-12-24T20:42:21.410646+00:00",
        "meta_object_name": "IRIDIUM 33 DEB",
        "meta_object_id": "1997-051BN",
        "meta_epoch": "2025-12-24T04:36:07.382304",
        "meta_mean_motion": 14.55427227,
        "meta_eccentricity": 0.00176564,
        "meta_inclination": 86.3831,
        "meta_ra_of_asc_node": 48.8082,
        "meta_arg_of_pericenter": 67.7318,
        "meta_mean_anomaly": 353.4963,
        "meta_ephemeris_type": 0,
        "meta_classification_type": "U",
        "meta_norad_cat_id": 33953,
        "meta_element_set_no": 999,
        "meta_rev_at_epoch": 88470,
        "meta_bstar": 0.0011715039,
        "meta_mean_motion_dot": 5.121e-05,
        "meta_mean_motion_ddot": 0,
        "tle_line1": "1 33953U 97051BN  25358.19175211  .00005121  00000+0  11715-2 0  9990",
        "tle_line2": "2 33953  86.3831  48.8082 0017656  67.7318 353.4963 14.55427227884700"
      },
      "geometry": {
        "type": "Point",
        "coordinates": [
          46.78157065178501,
          -25.582950424905324
        ]
      }
    },
    {
      "type": "Feature",
      "properties": {
        "norad_id": 33960,
        "name": "IRIDIUM 33 DEB",
        "group": "iridium-33-debris",
        "lat": 10.80999464999748,
        "lon": -75.4865753344564,
        "alt_km": 608.3284000207686,
        "timestamp": "2025-12-24T20:42:21.410657+00:00",
        "meta_object_name": "IRIDIUM 33 DEB",
        "meta_object_id": "1997-051BV",
        "meta_epoch": "2025-12-24T06:39:02.863872",
        "meta_mean_motion": 14.85753988,
        "meta_eccentricity": 0.00071775,
        "meta_inclination": 86.2538,
        "meta_ra_of_asc_node": 284.0729,
        "meta_arg_of_pericenter": 42.044,
        "meta_mean_anomaly": 78.6082,
        "meta_ephemeris_type": 0,
        "meta_classification_type": "U",
        "meta_norad_cat_id": 33960,
        "meta_element_set_no": 999,
        "meta_rev_at_epoch": 89038,
        "meta_bstar": 0.003360952,
        "meta_mean_motion_dot": 0.00029315,
        "meta_mean_motion_ddot": 0,
        "tle_line1": "1 33960U 97051BV  25358.27711648  .00029315  00000+0  33610-2 0  9996",
        "tle_line2": "2 33960  86.2538 284.0729 0007177  42.0440  78.6082 14.85753988890380"
      },
      "geometry": {
        "type": "Point",
        "coordinates": [
          -75.4865753344564,
          10.80999464999748
        ]
      }
    },
    {
      "type": "Feature",
      "properties": {
        "norad_id": 33966,
        "name": "IRIDIUM 33 DEB",
        "group": "iridium-33-debris",
        "lat": -29.694228811139066,
        "lon": -137.11347623893033,
        "alt_km": 729.6989768032972,
        "timestamp": "2025-12-24T20:42:21.410667+00:00",
        "meta_object_name": "IRIDIUM 33 DEB",
        "meta_object_id": "1997-051CB",
        "meta_epoch": "2025-12-24T03:25:26.789088",
        "meta_mean_motion": 14.49636291,
        "meta_eccentricity": 0.00086507,
        "meta_inclination": 86.391,
        "meta_ra_of_asc_node": 41.133,
        "meta_arg_of_pericenter": 152.8356,
        "meta_mean_anomaly": 261.2769,
        "meta_ephemeris_type": 0,
        "meta_classification_type": "U",
        "meta_norad_cat_id": 33966,
        "meta_element_set_no": 999,
        "meta_rev_at_epoch": 88607,
        "meta_bstar": 0.00047010387,
        "meta_mean_motion_dot": 1.826e-05,
        "meta_mean_motion_ddot": 0,
        "tle_line1": "1 33966U 97051CB  25358.14267117  .00001826  00000+0  47010-3 0  9992",
        "tle_line2": "2 33966  86.3910  41.1330 0008650 152.8356 261.2769 14.49636291886074"
      },
      "geometry": {
        "type": "Point",
        "coordinates": [
          -137.11347623893033,
          -29.694228811139066
        ]
      }
    },
    {
      "type": "Feature",
      "properties": {
        "norad_id": 34071,
        "name": "IRIDIUM 33 DEB",
        "group": "iridium-33-debris",
        "lat": -86.31911968116513,
        "lon": -70.96993675694223,
        "alt_km": 741.4575790278805,
        "timestamp": "2025-12-24T20:42:21.410677+00:00",
        "meta_object_name": "IRIDIUM 33 DEB",
        "meta_object_id": "1997-051CE",
        "meta_epoch": "2025-12-24T01:14:15.701568",
        "meta_mean_motion": 14.49512497,
        "meta_eccentricity": 0.0009894,
        "meta_inclination": 86.3449,
        "meta_ra_of_asc_node": 12.9107,
        "meta_arg_of_pericenter": 77.4352,
        "meta_mean_anomaly": 282.7959,
        "meta_ephemeris_type": 0,
        "meta_classification_type": "U",
        "meta_norad_cat_id": 34071,
        "meta_element_set_no": 999,
        "meta_rev_at_epoch": 88498,
        "meta_bstar": 0.0006196688,
        "meta_mean_motion_dot": 2.395e-05,
        "meta_mean_motion_ddot": 0,
        "tle_line1": "1 34071U 97051CE  25358.05157062  .00002395  00000+0  61967-3 0  9996",
        "tle_line2": "2 34071  86.3449  12.9107 0009894  77.4352 282.7959 14.49512497884984"
      },
      "geometry": {
        "type": "Point",
        "coordinates": [
          -70.96993675694223,
          -86.31911968116513
        ]
      }
    },
    {
      "type": "Feature",
      "properties": {
        "norad_id": 34077,
        "name": "IRIDIUM 33 DEB",
        "group": "iridium-33-debris",
        "lat": 64.28283549874715,
        "lon": 53.7090433628452,
        "alt_km": 668.3231394222439,
        "timestamp": "2025-12-24T20:42:21.410687+00:00",
        "meta_object_name": "IRIDIUM 33 DEB",
        "meta_object_id": "1997-051CL",
        "meta_epoch": "2025-12-24T04:17:25.303776",
        "meta_mean_motion": 14.64970223,
        "meta_eccentricity": 0.00088625,
        "meta_inclination": 86.3848,
        "meta_ra_of_asc_node": 46.4676,
        "meta_arg_of_pericenter": 1.8238,
        "meta_mean_anomaly": 57.733,
        "meta_ephemeris_type": 0,
        "meta_classification_type": "U",
        "meta_norad_cat_id": 34077,
        "meta_element_set_no": 999,
        "meta_rev_at_epoch": 88500,
        "meta_bstar": 0.001451868,
        "meta_mean_motion_dot": 7.8e-05,
        "meta_mean_motion_ddot": 0,
        "tle_line1": "1 34077U 97051CL  25358.17876509  .00007800  00000+0  14519-2 0  9995",
        "tle_line2": "2 34077  86.3848  46.4676 0008862   1.8238  57.7330 14.64970223885003"
      },
      "geometry": {
        "type": "Point",
        "coordinates": [
          53.7090433628452,
          64.28283549874715
        ]
      }
    }
  ]
}